[{"OBJECT_NAME":"STARLINK-3208","OBJECT_ID":"2021-115AX","EPOCH":"2026-03-09T11:07:31.459584","MEAN_MOTION":15.08853989,"ECCENTRICITY":0.00015293,"INCLINATION":53.2177,"RA_OF_ASC_NODE":140.1838,"ARG_OF_PERICENTER":90.6342,"MEAN_ANOMALY":269.4826,"EPHEMERIS_TYPE":0,"CLASSIFICATION_TYPE":"U","NORAD_CAT_ID":49769,"ELEMENT_SET_NO":999,"REV_AT_EPOCH":23564,"BSTAR":6.2679364e-5,"MEAN_MOTION_DOT":7.1e-6,"MEAN_MOTION_DDOT":0},{"OBJECT_NAME":"LEMUR-2-STELLA","OBJECT_ID":"2024-149BT","EPOCH":"2026-03-09T17:26:15.951264","MEAN_MOTION":15.09464064,"ECCENTRICITY":0.0001299,"INCLINATION":97.6764,"RA_OF_ASC_NODE":150.9122,"ARG_OF_PERICENTER":95.1117,"MEAN_ANOMALY":265.026,"EPHEMERIS_TYPE":0,"CLASSIFICATION_TYPE":"U","NORAD_CAT_ID":60533,"ELEMENT_SET_NO":999,"REV_AT_EPOCH":8548,"BSTAR":0.00085776432,"MEAN_MOTION_DOT":0.00013685,"MEAN_MOTION_DDOT":0}]
