STARLINK-3208           
1 49769U 21115AX  26068.46355856  .00000710  00000+0  62679-4 0  9990
2 49769  53.2177 140.1838 0001529  90.6342 269.4826 15.08853989235641
LEMUR-2-STELLA          
1 60533U 24149BT  26068.72657350  .00013685  00000+0  85776-3 0  9992
2 60533  97.6764 150.9122 0001299  95.1117 265.0260 15.09464064 85488
